{"type": "FeatureCollection", "features": [ {"type": "Feature", "properties": {"norad_id": 66885, "name": "STARLINK-35954", "group": "last-30-days", "lat": 52.32690632403728, "lon": 144.85018636901322, "alt_km": 288.67952550054997, "timestamp": "2025-12-13T18:50:03.174998+00:00", "meta": {"OBJECT_NAME": "STARLINK-35954", "OBJECT_ID": "2025-283H", "EPOCH": "2025-12-13T06:00:02.000160", "MEAN_MOTION": 15.93343674, "ECCENTRICITY": 0.00010086, "INCLINATION": 53.155, "RA_OF_ASC_NODE": 71.3698, "ARG_OF_PERICENTER": 82.2584, "MEAN_ANOMALY": 171.5271, "EPHEMERIS_TYPE": 0, "CLASSIFICATION_TYPE": "U", "NORAD_CAT_ID": 66885, "ELEMENT_SET_NO": 999, "REV_AT_EPOCH": 251, "BSTAR": -0.0033327792, "MEAN_MOTION_DOT": -0.01213568, "MEAN_MOTION_DDOT": 0.00044056486}, "tle": {"line1": "1 66885U 25283H   25347.25002315 -.01213568  44056-3 -33328-2 0  9993", "line2": "2 66885  53.1550  71.3698 0001008  82.2584 171.5271 15.93343674  2513"}}, "geometry": {"type": "Point", "coordinates": [144.85018636901322, 52.32690632403728]}}, {"type": "Feature", "properties": {"norad_id": 66886, "name": "STARLINK-35900", "group": "last-30-days", "lat": 53.013965314177995, "lon": 153.26724873636252, "alt_km": 288.335262444557, "timestamp": "2025-12-13T18:50:03.175010+00:00", "meta": {"OBJECT_NAME": "STARLINK-35900", "OBJECT_ID": "2025-283J", "EPOCH": "2025-12-13T06:00:02.000160", "MEAN_MOTION": 15.93461624, "ECCENTRICITY": 8.956e-05, "INCLINATION": 53.1551, "RA_OF_ASC_NODE": 71.3594, "ARG_OF_PERICENTER": 75.216, "MEAN_ANOMALY": 183.4914, "EPHEMERIS_TYPE": 0, "CLASSIFICATION_TYPE": "U", "NORAD_CAT_ID": 66886, "ELEMENT_SET_NO": 999, "REV_AT_EPOCH": 251, "BSTAR": -0.0033250248, "MEAN_MOTION_DOT": -0.01218235, "MEAN_MOTION_DDOT": 0.00044416701}, "tle": {"line1": "1 66886U 25283J   25347.25002315 -.01218235  44417-3 -33250-2 0  9995", "line2": "2 66886  53.1551  71.3594 0000895  75.2160 183.4914 15.93461624  2517"}}, "geometry": {"type": "Point", "coordinates": [153.26724873636252, 53.013965314177995]}}, {"type": "Feature", "properties": {"norad_id": 66887, "name": "STARLINK-35925", "group": "last-30-days", "lat": 53.122718970340046, "lon": 156.92749674624807, "alt_km": 288.1266251866973, "timestamp": "2025-12-13T18:50:03.175020+00:00", "meta": {"OBJECT_NAME": "STARLINK-35925", "OBJECT_ID": "2025-283K", "EPOCH": "2025-12-13T06:00:02.000160", "MEAN_MOTION": 15.93513295, "ECCENTRICITY": 9.68e-05, "INCLINATION": 53.1552, "RA_OF_ASC_NODE": 71.3553, "ARG_OF_PERICENTER": 76.1301, "MEAN_ANOMALY": 184.678, "EPHEMERIS_TYPE": 0, "CLASSIFICATION_TYPE": "U", "NORAD_CAT_ID": 66887, "ELEMENT_SET_NO": 999, "REV_AT_EPOCH": 251, "BSTAR": -0.0033159281, "MEAN_MOTION_DOT": -0.0121823, "MEAN_MOTION_DDOT": 0.00044439035}, "tle": {"line1": "1 66887U 25283K   25347.25002315 -.01218230  44439-3 -33159-2 0  9993", "line2": "2 66887  53.1552  71.3553 0000968  76.1301 184.6780 15.93513295  2518"}}, "geometry": {"type": "Point", "coordinates": [156.92749674624807, 53.122718970340046]}}, {"type": "Feature", "properties": {"norad_id": 66888, "name": "STARLINK-35919", "group": "last-30-days", "lat": 53.118726092496516, "lon": 160.57498108255015, "alt_km": 287.98679842619003, "timestamp": "2025-12-13T18:50:03.175030+00:00", "meta": {"OBJECT_NAME": "STARLINK-35919", "OBJECT_ID": "2025-283L", "EPOCH": "2025-12-13T06:00:02.000160", "MEAN_MOTION": 15.93575019, "ECCENTRICITY": 0.00010197, "INCLINATION": 53.1551, "RA_OF_ASC_NODE": 71.3506, "ARG_OF_PERICENTER": 85.8395, "MEAN_ANOMALY": 177.0565, "EPHEMERIS_TYPE": 0, "CLASSIFICATION_TYPE": "U", "NORAD_CAT_ID": 66888, "ELEMENT_SET_NO": 999, "REV_AT_EPOCH": 251, "BSTAR": -0.0033584252, "MEAN_MOTION_DOT": -0.01237657, "MEAN_MOTION_DDOT": 0.00045764476}, "tle": {"line1": "1 66888U 25283L   25347.25002315 -.01237657  45764-3 -33584-2 0  9992", "line2": "2 66888  53.1551  71.3506 0001019  85.8395 177.0565 15.93575019  2513"}}, "geometry": {"type": "Point", "coordinates": [160.57498108255015, 53.118726092496516]}}, {"type": "Feature", "properties": {"norad_id": 66889, "name": "STARLINK-35852", "group": "last-30-days", "lat": 52.973629442877886, "lon": 164.79938014694594, "alt_km": 287.8649869385208, "timestamp": "2025-12-13T18:50:03.175042+00:00", "meta": {"OBJECT_NAME": "STARLINK-35852", "OBJECT_ID": "2025-283M", "EPOCH": "2025-12-13T06:00:02.000160", "MEAN_MOTION": 15.93638918, "ECCENTRICITY": 0.0001006, "INCLINATION": 53.1546, "RA_OF_ASC_NODE": 71.3454, "ARG_OF_PERICENTER": 80.7131, "MEAN_ANOMALY": 184.6084, "EPHEMERIS_TYPE": 0, "CLASSIFICATION_TYPE": "U", "NORAD_CAT_ID": 66889, "ELEMENT_SET_NO": 999, "REV_AT_EPOCH": 251, "BSTAR": -0.0033681388, "MEAN_MOTION_DOT": -0.01245348, "MEAN_MOTION_DDOT": 0.00046312535}, "tle": {"line1": "1 66889U 25283M   25347.25002315 -.01245348  46313-3 -33681-2 0  9998", "line2": "2 66889  53.1546  71.3454 0001006  80.7131 184.6084 15.93638918  2516"}}, "geometry": {"type": "Point", "coordinates": [164.79938014694594, 52.973629442877886]}}, {"type": "Feature", "properties": {"norad_id": 66890, "name": "STARLINK-35885", "group": "last-30-days", "lat": 52.70020271086475, "lon": 168.7563472291428, "alt_km": 287.74184590474124, "timestamp": "2025-12-13T18:50:03.175053+00:00", "meta": {"OBJECT_NAME": "STARLINK-35885", "OBJECT_ID": "2025-283N", "EPOCH": "2025-12-13T06:00:02.000160", "MEAN_MOTION": 15.93696048, "ECCENTRICITY": 9.761e-05, "INCLINATION": 53.1549, "RA_OF_ASC_NODE": 71.3408, "ARG_OF_PERICENTER": 77.4937, "MEAN_ANOMALY": 190.1211, "EPHEMERIS_TYPE": 0, "CLASSIFICATION_TYPE": "U", "NORAD_CAT_ID": 66890, "ELEMENT_SET_NO": 999, "REV_AT_EPOCH": 251, "BSTAR": -0.0033527666, "MEAN_MOTION_DOT": -0.01243436, "MEAN_MOTION_DDOT": 0.00046209227}, "tle": {"line1": "1 66890U 25283N   25347.25002315 -.01243436  46209-3 -33528-2 0  9990", "line2": "2 66890  53.1549  71.3408 0000976  77.4937 190.1211 15.93696048  2514"}}, "geometry": {"type": "Point", "coordinates": [168.7563472291428, 52.70020271086475]}}, {"type": "Feature", "properties": {"norad_id": 66891, "name": "STARLINK-35855", "group": "last-30-days", "lat": 52.28335734656975, "lon": 172.75953801199236, "alt_km": 287.6478043627949, "timestamp": "2025-12-13T18:50:03.175063+00:00", "meta": {"OBJECT_NAME": "STARLINK-35855", "OBJECT_ID": "2025-283P", "EPOCH": "2025-12-13T06:00:02.000160", "MEAN_MOTION": 15.93760326, "ECCENTRICITY": 0.00010203, "INCLINATION": 53.155, "RA_OF_ASC_NODE": 71.336, "ARG_OF_PERICENTER": 81.1792, "MEAN_ANOMALY": 188.7927, "EPHEMERIS_TYPE": 0, "CLASSIFICATION_TYPE": "U", "NORAD_CAT_ID": 66891, "ELEMENT_SET_NO": 999, "REV_AT_EPOCH": 251, "BSTAR": -0.0033720424, "MEAN_MOTION_DOT": -0.01254723, "MEAN_MOTION_DDOT": 0.00047005395}, "tle": {"line1": "1 66891U 25283P   25347.25002315 -.01254723  47005-3 -33720-2 0  9991", "line2": "2 66891  53.1550  71.3360 0001020  81.1792 188.7927 15.93760326  2514"}}, "geometry": {"type": "Point", "coordinates": [172.75953801199236, 52.28335734656975]}}, {"type": "Feature", "properties": {"norad_id": 66892, "name": "STARLINK-35883", "group": "last-30-days", "lat": 51.757459975864386, "lon": 176.5228957751157, "alt_km": 287.57289689566096, "timestamp": "2025-12-13T18:50:03.175073+00:00", "meta": {"OBJECT_NAME": "STARLINK-35883", "OBJECT_ID": "2025-283Q", "EPOCH": "2025-12-13T06:00:02.000160", "MEAN_MOTION": 15.93814388, "ECCENTRICITY": 0.00010159, "INCLINATION": 53.1548, "RA_OF_ASC_NODE": 71.3308, "ARG_OF_PERICENTER": 79.5813, "MEAN_ANOMALY": 192.6558, "EPHEMERIS_TYPE": 0, "CLASSIFICATION_TYPE": "U", "NORAD_CAT_ID": 66892, "ELEMENT_SET_NO": 999, "REV_AT_EPOCH": 245, "BSTAR": -0.0033521049, "MEAN_MOTION_DOT": -0.01250927, "MEAN_MOTION_DDOT": 0.00046771967}, "tle": {"line1": "1 66892U 25283Q   25347.25002315 -.01250927  46772-3 -33521-2 0  9993", "line2": "2 66892  53.1548  71.3308 0001015  79.5813 192.6558 15.93814388  2458"}}, "geometry": {"type": "Point", "coordinates": [176.5228957751157, 51.757459975864386]}}, {"type": "Feature", "properties": {"norad_id": 66893, "name": "STARLINK-36033", "group": "last-30-days", "lat": 51.14213331429551, "lon": -179.9545335805322, "alt_km": 287.4774218636521, "timestamp": "2025-12-13T18:50:03.175083+00:00", "meta": {"OBJECT_NAME": "STARLINK-36033", "OBJECT_ID": "2025-283R", "EPOCH": "2025-12-13T06:00:02.000160", "MEAN_MOTION": 15.93872242, "ECCENTRICITY": 0.00010644, "INCLINATION": 53.1547, "RA_OF_ASC_NODE": 71.3265, "ARG_OF_PERICENTER": 80.7322, "MEAN_ANOMALY": 193.674, "EPHEMERIS_TYPE": 0, "CLASSIFICATION_TYPE": "U", "NORAD_CAT_ID": 66893, "ELEMENT_SET_NO": 999, "REV_AT_EPOCH": 251, "BSTAR": -0.0033486397, "MEAN_MOTION_DOT": -0.0125345, "MEAN_MOTION_DDOT": 0.0004697077}, "tle": {"line1": "1 66893U 25283R   25347.25002315 -.01253450  46971-3 -33486-2 0  9999", "line2": "2 66893  53.1547  71.3265 0001064  80.7322 193.6740 15.93872242  2517"}}, "geometry": {"type": "Point", "coordinates": [-179.9545335805322, 51.14213331429551]}}, {"type": "Feature", "properties": {"norad_id": 66894, "name": "STARLINK-35718", "group": "last-30-days", "lat": 50.22289241521691, "lon": -175.66825001706158, "alt_km": 287.4685500575579, "timestamp": "2025-12-13T18:50:03.175093+00:00", "meta": {"OBJECT_NAME": "STARLINK-35718", "OBJECT_ID": "2025-283S", "EPOCH": "2025-12-13T06:00:02.000160", "MEAN_MOTION": 15.93950805, "ECCENTRICITY": 0.00010468, "INCLINATION": 53.1549, "RA_OF_ASC_NODE": 71.321, "ARG_OF_PERICENTER": 82.3966, "MEAN_ANOMALY": 194.7458, "EPHEMERIS_TYPE": 0, "CLASSIFICATION_TYPE": "U", "NORAD_CAT_ID": 66894, "ELEMENT_SET_NO": 999, "REV_AT_EPOCH": 251, "BSTAR": -0.0033950312, "MEAN_MOTION_DOT": -0.01275858, "MEAN_MOTION_DDOT": 0.00048548232}, "tle": {"line1": "1 66894U 25283S   25347.25002315 -.01275858  48548-3 -33950-2 0  9994", "line2": "2 66894  53.1549  71.3210 0001046  82.3966 194.7458 15.93950805  2512"}}, "geometry": {"type": "Point", "coordinates": [-175.66825001706158, 50.22289241521691]}}]}